CBERS 4                 
1 40336U 14079A   20349.16032742 -.00000090  00000-0 -16155-4 0  9993
2 40336  98.5447  59.2792 0000660  71.0537 289.0729 14.35420463315462
CZ-4B R/B               
1 40337U 14079B   20348.79707337  .00000364  00000-0  34577-4 0  9991
2 40337  98.4401 246.6697 0177662  86.5359 275.6159 14.89489920327078
